ORBCOMM FM115           
1 41186U 15081H   25273.66093994  .00002256  00000+0  47285-3 0  9993
2 41186  46.9970 257.8585 0001218 243.2928 116.7835 14.62696436523210
ORBCOMM FM108           
1 41187U 15081J   25273.13748099  .00002032  00000+0  47092-3 0  9997
2 41187  47.0053 331.2787 0001285  70.6574 289.4450 14.58354790522117
ORBCOMM FM117           
1 41188U 15081K   25273.51483304  .00002359  00000+0  54083-3 0  9995
2 41188  47.0015 328.2242 0001859  92.8868 267.2230 14.58352098522217
ORBCOMM FM116           
1 41189U 15081L   25273.43009119  .00001616  00000+0  38150-3 0  9997
2 41189  47.0026  58.4241 0002265 274.2138  85.8489 14.58419081521012
